{"type": "FeatureCollection", "features": [ {"type": "Feature", "properties": {"norad_id": 34464, "name": "COSMOS 2251 DEB", "group": "cosmos-2251-debris", "lat": 16.26983261549818, "lon": 87.22307209746215, "alt_km": 491.5551293643066, "timestamp": "2025-12-10T18:57:00.459488+00:00", "meta": {"OBJECT_NAME": "COSMOS 2251 DEB", "OBJECT_ID": "1993-036TH", "EPOCH": "2025-12-10T09:26:19.995072", "MEAN_MOTION": 15.26503018, "ECCENTRICITY": 0.0016472, "INCLINATION": 73.9894, "RA_OF_ASC_NODE": 83.2569, "ARG_OF_PERICENTER": 260.6825, "MEAN_ANOMALY": 99.2513, "EPHEMERIS_TYPE": 0, "CLASSIFICATION_TYPE": "U", "NORAD_CAT_ID": 34464, "ELEMENT_SET_NO": 999, "REV_AT_EPOCH": 89804, "BSTAR": 0.0042427, "MEAN_MOTION_DOT": 0.00112879, "MEAN_MOTION_DDOT": 0}, "tle": {"line1": "1 34464U 93036TH  25344.39328698  .00112879  00000+0  42427-2 0  9996", "line2": "2 34464  73.9894  83.2569 0016472 260.6825  99.2513 15.26503018898044"}}, "geometry": {"type": "Point", "coordinates": [87.22307209746215, 16.26983261549818]}}, {"type": "Feature", "properties": {"norad_id": 34468, "name": "COSMOS 2251 DEB", "group": "cosmos-2251-debris", "lat": 69.41791143280983, "lon": 170.62691320399443, "alt_km": 779.939005203687, "timestamp": "2025-12-10T18:57:00.459498+00:00", "meta": {"OBJECT_NAME": "COSMOS 2251 DEB", "OBJECT_ID": "1993-036TM", "EPOCH": "2025-12-10T11:57:31.372992", "MEAN_MOTION": 14.47615345, "ECCENTRICITY": 0.0076349, "INCLINATION": 74.0129, "RA_OF_ASC_NODE": 121.4033, "ARG_OF_PERICENTER": 266.7842, "MEAN_ANOMALY": 92.458, "EPHEMERIS_TYPE": 0, "CLASSIFICATION_TYPE": "U", "NORAD_CAT_ID": 34468, "ELEMENT_SET_NO": 999, "REV_AT_EPOCH": 88429, "BSTAR": 0.00057179, "MEAN_MOTION_DOT": 2.156e-05, "MEAN_MOTION_DDOT": 0}, "tle": {"line1": "1 34468U 93036TM  25344.49827978  .00002156  00000+0  57179-3 0  9993", "line2": "2 34468  74.0129 121.4033 0076349 266.7842  92.4580 14.47615345884297"}}, "geometry": {"type": "Point", "coordinates": [170.62691320399443, 69.41791143280983]}}, {"type": "Feature", "properties": {"norad_id": 34472, "name": "COSMOS 2251 DEB", "group": "cosmos-2251-debris", "lat": -67.70253863095243, "lon": 57.25847934668968, "alt_km": 854.9066697808112, "timestamp": "2025-12-10T18:57:00.459508+00:00", "meta": {"OBJECT_NAME": "COSMOS 2251 DEB", "OBJECT_ID": "1993-036TR", "EPOCH": "2025-12-08T18:15:08.826912", "MEAN_MOTION": 13.70322213, "ECCENTRICITY": 0.03280903, "INCLINATION": 74.0833, "RA_OF_ASC_NODE": 104.6881, "ARG_OF_PERICENTER": 236.5736, "MEAN_ANOMALY": 120.3611, "EPHEMERIS_TYPE": 0, "CLASSIFICATION_TYPE": "U", "NORAD_CAT_ID": 34472, "ELEMENT_SET_NO": 999, "REV_AT_EPOCH": 83672, "BSTAR": 0.0014639166, "MEAN_MOTION_DOT": 1.867e-05, "MEAN_MOTION_DDOT": 0}, "tle": {"line1": "1 34472U 93036TR  25342.76051883  .00001867  00000+0  14639-2 0  9991", "line2": "2 34472  74.0833 104.6881 0328090 236.5736 120.3611 13.70322213836723"}}, "geometry": {"type": "Point", "coordinates": [57.25847934668968, -67.70253863095243]}}, {"type": "Feature", "properties": {"norad_id": 34474, "name": "COSMOS 2251 DEB", "group": "cosmos-2251-debris", "lat": 13.57424760601376, "lon": 145.63098953316816, "alt_km": 946.042714273447, "timestamp": "2025-12-10T18:57:00.459517+00:00", "meta": {"OBJECT_NAME": "COSMOS 2251 DEB", "OBJECT_ID": "1993-036TT", "EPOCH": "2025-12-10T10:12:06.715008", "MEAN_MOTION": 14.06387767, "ECCENTRICITY": 0.0198161, "INCLINATION": 74.0784, "RA_OF_ASC_NODE": 330.219, "ARG_OF_PERICENTER": 44.6885, "MEAN_ANOMALY": 74.3366, "EPHEMERIS_TYPE": 0, "CLASSIFICATION_TYPE": "U", "NORAD_CAT_ID": 34474, "ELEMENT_SET_NO": 999, "REV_AT_EPOCH": 85476, "BSTAR": 0.0026431, "MEAN_MOTION_DOT": 5.193e-05, "MEAN_MOTION_DDOT": 0}, "tle": {"line1": "1 34474U 93036TT  25344.42507772  .00005193  00000+0  26431-2 0  9990", "line2": "2 34474  74.0784 330.2190 0198161  44.6885  74.3366 14.06387767854761"}}, "geometry": {"type": "Point", "coordinates": [145.63098953316816, 13.57424760601376]}}, {"type": "Feature", "properties": {"norad_id": 34476, "name": "COSMOS 2251 DEB", "group": "cosmos-2251-debris", "lat": -50.57257753628941, "lon": 65.37440909262097, "alt_km": 728.7437356067067, "timestamp": "2025-12-10T18:57:00.459527+00:00", "meta": {"OBJECT_NAME": "COSMOS 2251 DEB", "OBJECT_ID": "1993-036TV", "EPOCH": "2025-12-09T17:08:07.643904", "MEAN_MOTION": 13.8198057, "ECCENTRICITY": 0.03198729, "INCLINATION": 74.0051, "RA_OF_ASC_NODE": 87.6033, "ARG_OF_PERICENTER": 307.8272, "MEAN_ANOMALY": 49.4288, "EPHEMERIS_TYPE": 0, "CLASSIFICATION_TYPE": "U", "NORAD_CAT_ID": 34476, "ELEMENT_SET_NO": 999, "REV_AT_EPOCH": 83596, "BSTAR": 0.0047302672, "MEAN_MOTION_DOT": 7.488e-05, "MEAN_MOTION_DDOT": 0}, "tle": {"line1": "1 34476U 93036TV  25343.71397736  .00007488  00000+0  47303-2 0  9990", "line2": "2 34476  74.0051  87.6033 0319872 307.8272  49.4288 13.81980570835967"}}, "geometry": {"type": "Point", "coordinates": [65.37440909262097, -50.57257753628941]}}, {"type": "Feature", "properties": {"norad_id": 34477, "name": "COSMOS 2251 DEB", "group": "cosmos-2251-debris", "lat": 34.85199365623119, "lon": 84.75980203980889, "alt_km": 739.6226487799868, "timestamp": "2025-12-10T18:57:00.459537+00:00", "meta": {"OBJECT_NAME": "COSMOS 2251 DEB", "OBJECT_ID": "1993-036TW", "EPOCH": "2025-12-10T09:15:11.570976", "MEAN_MOTION": 14.56835292, "ECCENTRICITY": 0.0076925, "INCLINATION": 73.9788, "RA_OF_ASC_NODE": 73.9871, "ARG_OF_PERICENTER": 261.59, "MEAN_ANOMALY": 176.2046, "EPHEMERIS_TYPE": 0, "CLASSIFICATION_TYPE": "U", "NORAD_CAT_ID": 34477, "ELEMENT_SET_NO": 999, "REV_AT_EPOCH": 88591, "BSTAR": 0.0013074, "MEAN_MOTION_DOT": 6.072e-05, "MEAN_MOTION_DDOT": 0}, "tle": {"line1": "1 34477U 93036TW  25344.38555059  .00006072  00000+0  13074-2 0  9995", "line2": "2 34477  73.9788  73.9871 0076925 261.5900 176.2046 14.56835292885918"}}, "geometry": {"type": "Point", "coordinates": [84.75980203980889, 34.85199365623119]}}, {"type": "Feature", "properties": {"norad_id": 34478, "name": "COSMOS 2251 DEB", "group": "cosmos-2251-debris", "lat": -72.83558119790655, "lon": -57.00858840811496, "alt_km": 532.4697697069514, "timestamp": "2025-12-10T18:57:00.459547+00:00", "meta": {"OBJECT_NAME": "COSMOS 2251 DEB", "OBJECT_ID": "1993-036TX", "EPOCH": "2025-12-10T11:54:41.684256", "MEAN_MOTION": 15.07704921, "ECCENTRICITY": 0.0035295, "INCLINATION": 74.0399, "RA_OF_ASC_NODE": 11.4997, "ARG_OF_PERICENTER": 232.9868, "MEAN_ANOMALY": 251.9768, "EPHEMERIS_TYPE": 0, "CLASSIFICATION_TYPE": "U", "NORAD_CAT_ID": 34478, "ELEMENT_SET_NO": 999, "REV_AT_EPOCH": 88939, "BSTAR": 0.0039086, "MEAN_MOTION_DOT": 0.00060996, "MEAN_MOTION_DDOT": 0}, "tle": {"line1": "1 34478U 93036TX  25344.49631579  .00060996  00000+0  39086-2 0  9996", "line2": "2 34478  74.0399  11.4997 0035295 232.9868 251.9768 15.07704921889394"}}, "geometry": {"type": "Point", "coordinates": [-57.00858840811496, -72.83558119790655]}}, {"type": "Feature", "properties": {"norad_id": 34481, "name": "COSMOS 2251 DEB", "group": "cosmos-2251-debris", "lat": 37.85308788263965, "lon": 69.93178576916097, "alt_km": 829.7088253317334, "timestamp": "2025-12-10T18:57:00.459557+00:00", "meta": {"OBJECT_NAME": "COSMOS 2251 DEB", "OBJECT_ID": "1993-036UA", "EPOCH": "2025-12-10T05:40:15.862080", "MEAN_MOTION": 14.32535781, "ECCENTRICITY": 0.0070807, "INCLINATION": 73.9803, "RA_OF_ASC_NODE": 58.0431, "ARG_OF_PERICENTER": 232.8717, "MEAN_ANOMALY": 194.4467, "EPHEMERIS_TYPE": 0, "CLASSIFICATION_TYPE": "U", "NORAD_CAT_ID": 34481, "ELEMENT_SET_NO": 999, "REV_AT_EPOCH": 87413, "BSTAR": 0.0010995, "MEAN_MOTION_DOT": 3.04e-05, "MEAN_MOTION_DDOT": 0}, "tle": {"line1": "1 34481U 93036UA  25344.23629470  .00003040  00000+0  10995-2 0  9994", "line2": "2 34481  73.9803  58.0431 0070807 232.8717 194.4467 14.32535781874132"}}, "geometry": {"type": "Point", "coordinates": [69.93178576916097, 37.85308788263965]}}, {"type": "Feature", "properties": {"norad_id": 34482, "name": "COSMOS 2251 DEB", "group": "cosmos-2251-debris", "lat": -44.33610210481657, "lon": -148.87322171215996, "alt_km": 641.5403902834651, "timestamp": "2025-12-10T18:57:00.459567+00:00", "meta": {"OBJECT_NAME": "COSMOS 2251 DEB", "OBJECT_ID": "1993-036UB", "EPOCH": "2025-12-10T03:23:45.516192", "MEAN_MOTION": 14.69092149, "ECCENTRICITY": 0.004527, "INCLINATION": 74.0365, "RA_OF_ASC_NODE": 228.6226, "ARG_OF_PERICENTER": 289.035, "MEAN_ANOMALY": 198.0211, "EPHEMERIS_TYPE": 0, "CLASSIFICATION_TYPE": "U", "NORAD_CAT_ID": 34482, "ELEMENT_SET_NO": 999, "REV_AT_EPOCH": 88149, "BSTAR": 0.0026498954, "MEAN_MOTION_DOT": 0.00015818, "MEAN_MOTION_DDOT": 0}, "tle": {"line1": "1 34482U 93036UB  25344.14149903  .00015818  00000+0  26499-2 0  9995", "line2": "2 34482  74.0365 228.6226 0045270 289.0350 198.0211 14.69092149881498"}}, "geometry": {"type": "Point", "coordinates": [-148.87322171215996, -44.33610210481657]}}, {"type": "Feature", "properties": {"norad_id": 34544, "name": "COSMOS 2251 DEB", "group": "cosmos-2251-debris", "lat": -68.07332389401867, "lon": 161.3979321446896, "alt_km": 869.0078589256718, "timestamp": "2025-12-10T18:57:00.459577+00:00", "meta": {"OBJECT_NAME": "COSMOS 2251 DEB", "OBJECT_ID": "1993-036UE", "EPOCH": "2025-12-10T02:24:14.796864", "MEAN_MOTION": 13.54660567, "ECCENTRICITY": 0.03843114, "INCLINATION": 73.9147, "RA_OF_ASC_NODE": 208.3027, "ARG_OF_PERICENTER": 237.232, "MEAN_ANOMALY": 283.7321, "EPHEMERIS_TYPE": 0, "CLASSIFICATION_TYPE": "U", "NORAD_CAT_ID": 34544, "ELEMENT_SET_NO": 999, "REV_AT_EPOCH": 82846, "BSTAR": 0.00033947484, "MEAN_MOTION_DOT": 3.49e-06, "MEAN_MOTION_DDOT": 0}, "tle": {"line1": "1 34544U 93036UE  25344.10017126  .00000349  00000+0  33947-3 0  9991", "line2": "2 34544  73.9147 208.3027 0384311 237.2320 283.7321 13.54660567828461"}}, "geometry": {"type": "Point", "coordinates": [161.3979321446896, -68.07332389401867]}}]}